{"type": "FeatureCollection", "features": [ {"type": "Feature", "properties": {"norad_id": 40534, "name": "GPS BIIF-9  (PRN 26)", "group": "gps-ops", "lat": 32.82329914081732, "lon": 2.546225290199456, "alt_km": 20217.794729286874, "timestamp": "2025-12-24T05:51:19.867685+00:00", "meta": {"OBJECT_NAME": "GPS BIIF-9  (PRN 26)", "OBJECT_ID": "2015-013A", "EPOCH": "2025-12-23T13:23:27.680064", "MEAN_MOTION": 2.00561916, "ECCENTRICITY": 0.01074584, "INCLINATION": 53.1963, "RA_OF_ASC_NODE": 211.4421, "ARG_OF_PERICENTER": 38.7467, "MEAN_ANOMALY": 322.0973, "EPHEMERIS_TYPE": 0, "CLASSIFICATION_TYPE": "U", "NORAD_CAT_ID": 40534, "ELEMENT_SET_NO": 999, "REV_AT_EPOCH": 7830, "BSTAR": 0, "MEAN_MOTION_DOT": 7.5e-07, "MEAN_MOTION_DDOT": 0}, "tle": {"line1": "1 40534U 15013A   25357.55795926  .00000075  00000+0  00000+0 0  9996", "line2": "2 40534  53.1963 211.4421 0107458  38.7467 322.0973  2.00561916 78304"}}, "geometry": {"type": "Point", "coordinates": [2.546225290199456, 32.82329914081732]}}, {"type": "Feature", "properties": {"norad_id": 40730, "name": "GPS BIIF-10 (PRN 08)", "group": "gps-ops", "lat": 15.559058747196527, "lon": -74.09325517297152, "alt_km": 19886.360210383486, "timestamp": "2025-12-24T05:51:19.867697+00:00", "meta": {"OBJECT_NAME": "GPS BIIF-10 (PRN 08)", "OBJECT_ID": "2015-033A", "EPOCH": "2025-12-23T05:17:42.404352", "MEAN_MOTION": 2.00565183, "ECCENTRICITY": 0.01115799, "INCLINATION": 54.1216, "RA_OF_ASC_NODE": 274.3416, "ARG_OF_PERICENTER": 27.0753, "MEAN_ANOMALY": 333.5521, "EPHEMERIS_TYPE": 0, "CLASSIFICATION_TYPE": "U", "NORAD_CAT_ID": 40730, "ELEMENT_SET_NO": 999, "REV_AT_EPOCH": 7646, "BSTAR": 0, "MEAN_MOTION_DOT": -1.3e-07, "MEAN_MOTION_DDOT": 0}, "tle": {"line1": "1 40730U 15033A   25357.22062968 -.00000013  00000+0  00000+0 0  9996", "line2": "2 40730  54.1216 274.3416 0111579  27.0753 333.5521  2.00565183 76465"}}, "geometry": {"type": "Point", "coordinates": [-74.09325517297152, 15.559058747196527]}}, {"type": "Feature", "properties": {"norad_id": 41019, "name": "GPS BIIF-11 (PRN 10)", "group": "gps-ops", "lat": -19.671748724405756, "lon": 24.063667409569906, "alt_km": 20263.034680257468, "timestamp": "2025-12-24T05:51:19.867708+00:00", "meta": {"OBJECT_NAME": "GPS BIIF-11 (PRN 10)", "OBJECT_ID": "2015-062A", "EPOCH": "2025-12-23T06:43:12.895968", "MEAN_MOTION": 2.00567181, "ECCENTRICITY": 0.01110751, "INCLINATION": 56.8398, "RA_OF_ASC_NODE": 37.5947, "ARG_OF_PERICENTER": 230.2304, "MEAN_ANOMALY": 128.8517, "EPHEMERIS_TYPE": 0, "CLASSIFICATION_TYPE": "U", "NORAD_CAT_ID": 41019, "ELEMENT_SET_NO": 999, "REV_AT_EPOCH": 7430, "BSTAR": 0, "MEAN_MOTION_DOT": -4.8e-07, "MEAN_MOTION_DDOT": 0}, "tle": {"line1": "1 41019U 15062A   25357.28001037 -.00000048  00000+0  00000+0 0  9993", "line2": "2 41019  56.8398  37.5947 0111075 230.2304 128.8517  2.00567181 74306"}}, "geometry": {"type": "Point", "coordinates": [24.063667409569906, -19.671748724405756]}}, {"type": "Feature", "properties": {"norad_id": 41328, "name": "GPS BIIF-12 (PRN 32)", "group": "gps-ops", "lat": -54.999199300025786, "lon": 16.68769631975716, "alt_km": 19979.376743603934, "timestamp": "2025-12-24T05:51:19.867719+00:00", "meta": {"OBJECT_NAME": "GPS BIIF-12 (PRN 32)", "OBJECT_ID": "2016-007A", "EPOCH": "2025-12-21T20:48:30.607488", "MEAN_MOTION": 2.00560245, "ECCENTRICITY": 0.00926349, "INCLINATION": 55.4111, "RA_OF_ASC_NODE": 96.4948, "ARG_OF_PERICENTER": 243.8067, "MEAN_ANOMALY": 115.2397, "EPHEMERIS_TYPE": 0, "CLASSIFICATION_TYPE": "U", "NORAD_CAT_ID": 41328, "ELEMENT_SET_NO": 999, "REV_AT_EPOCH": 7228, "BSTAR": 0, "MEAN_MOTION_DOT": -3e-08, "MEAN_MOTION_DDOT": 0}, "tle": {"line1": "1 41328U 16007A   25355.86702092 -.00000003  00000+0  00000+0 0  9998", "line2": "2 41328  55.4111  96.4948 0092634 243.8067 115.2397  2.00560245 72282"}}, "geometry": {"type": "Point", "coordinates": [16.68769631975716, -54.999199300025786]}}, {"type": "Feature", "properties": {"norad_id": 43873, "name": "GPS BIII-1  (PRN 04)", "group": "gps-ops", "lat": 8.638269658175417, "lon": -86.87515370084179, "alt_km": 20092.26556896869, "timestamp": "2025-12-24T05:51:19.867731+00:00", "meta": {"OBJECT_NAME": "GPS BIII-1  (PRN 04)", "OBJECT_ID": "2018-109A", "EPOCH": "2025-12-23T17:59:08.698272", "MEAN_MOTION": 2.00553954, "ECCENTRICITY": 0.00376155, "INCLINATION": 55.5727, "RA_OF_ASC_NODE": 99.1128, "ARG_OF_PERICENTER": 195.5361, "MEAN_ANOMALY": 337.0288, "EPHEMERIS_TYPE": 0, "CLASSIFICATION_TYPE": "U", "NORAD_CAT_ID": 43873, "ELEMENT_SET_NO": 999, "REV_AT_EPOCH": 5155, "BSTAR": 0, "MEAN_MOTION_DOT": 1.4e-07, "MEAN_MOTION_DDOT": 0}, "tle": {"line1": "1 43873U 18109A   25357.74940623  .00000014  00000+0  00000+0 0  9994", "line2": "2 43873  55.5727  99.1128 0037615 195.5361 337.0288  2.00553954 51550"}}, "geometry": {"type": "Point", "coordinates": [-86.87515370084179, 8.638269658175417]}}, {"type": "Feature", "properties": {"norad_id": 44506, "name": "GPS BIII-2  (PRN 18)", "group": "gps-ops", "lat": 49.323255892690135, "lon": 30.594635472373234, "alt_km": 20277.954767843145, "timestamp": "2025-12-24T05:51:19.867742+00:00", "meta": {"OBJECT_NAME": "GPS BIII-2  (PRN 18)", "OBJECT_ID": "2019-056A", "EPOCH": "2025-12-23T09:23:28.795200", "MEAN_MOTION": 2.0056658, "ECCENTRICITY": 0.00577459, "INCLINATION": 55.7176, "RA_OF_ASC_NODE": 338.1305, "ARG_OF_PERICENTER": 198.6012, "MEAN_ANOMALY": 332.8304, "EPHEMERIS_TYPE": 0, "CLASSIFICATION_TYPE": "U", "NORAD_CAT_ID": 44506, "ELEMENT_SET_NO": 999, "REV_AT_EPOCH": 4654, "BSTAR": 0, "MEAN_MOTION_DOT": -6.4e-07, "MEAN_MOTION_DDOT": 0}, "tle": {"line1": "1 44506U 19056A   25357.39130550 -.00000064  00000+0  00000+0 0  9997", "line2": "2 44506  55.7176 338.1305 0057745 198.6012 332.8304  2.00566580 46544"}}, "geometry": {"type": "Point", "coordinates": [30.594635472373234, 49.323255892690135]}}, {"type": "Feature", "properties": {"norad_id": 45854, "name": "GPS BIII-3  (PRN 23)", "group": "gps-ops", "lat": 9.21724362518754, "lon": 41.908832509096115, "alt_km": 20338.566121296943, "timestamp": "2025-12-24T05:51:19.867754+00:00", "meta": {"OBJECT_NAME": "GPS BIII-3  (PRN 23)", "OBJECT_ID": "2020-041A", "EPOCH": "2025-12-23T06:54:40.562208", "MEAN_MOTION": 2.00561768, "ECCENTRICITY": 0.00606476, "INCLINATION": 56.5539, "RA_OF_ASC_NODE": 35.7754, "ARG_OF_PERICENTER": 203.7047, "MEAN_ANOMALY": 196.9972, "EPHEMERIS_TYPE": 0, "CLASSIFICATION_TYPE": "U", "NORAD_CAT_ID": 45854, "ELEMENT_SET_NO": 999, "REV_AT_EPOCH": 4051, "BSTAR": 0, "MEAN_MOTION_DOT": -4.9e-07, "MEAN_MOTION_DDOT": 0}, "tle": {"line1": "1 45854U 20041A   25357.28796947 -.00000049  00000+0  00000+0 0  9999", "line2": "2 45854  56.5539  35.7754 0060647 203.7047 196.9972  2.00561768 40516"}}, "geometry": {"type": "Point", "coordinates": [41.908832509096115, 9.21724362518754]}}, {"type": "Feature", "properties": {"norad_id": 46826, "name": "GPS BIII-4  (PRN 14)", "group": "gps-ops", "lat": -13.932543882834103, "lon": -152.49778784166256, "alt_km": 20313.62934573553, "timestamp": "2025-12-24T05:51:19.867765+00:00", "meta": {"OBJECT_NAME": "GPS BIII-4  (PRN 14)", "OBJECT_ID": "2020-078A", "EPOCH": "2025-12-16T01:06:13.902336", "MEAN_MOTION": 2.00566891, "ECCENTRICITY": 0.00647535, "INCLINATION": 54.0144, "RA_OF_ASC_NODE": 218.2068, "ARG_OF_PERICENTER": 203.3802, "MEAN_ANOMALY": 339.3962, "EPHEMERIS_TYPE": 0, "CLASSIFICATION_TYPE": "U", "NORAD_CAT_ID": 46826, "ELEMENT_SET_NO": 999, "REV_AT_EPOCH": 3783, "BSTAR": 0, "MEAN_MOTION_DOT": 6.7e-07, "MEAN_MOTION_DDOT": 0}, "tle": {"line1": "1 46826U 20078A   25350.04599424  .00000067  00000+0  00000+0 0  9996", "line2": "2 46826  54.0144 218.2068 0064753 203.3802 339.3962  2.00566891 37839"}}, "geometry": {"type": "Point", "coordinates": [-152.49778784166256, -13.932543882834103]}}, {"type": "Feature", "properties": {"norad_id": 48859, "name": "GPS BIII-5  (PRN 11)", "group": "gps-ops", "lat": 10.83492031006492, "lon": 151.84639424681842, "alt_km": 20156.34780841095, "timestamp": "2025-12-24T05:51:19.867777+00:00", "meta": {"OBJECT_NAME": "GPS BIII-5  (PRN 11)", "OBJECT_ID": "2021-054A", "EPOCH": "2025-12-08T04:14:32.423424", "MEAN_MOTION": 2.00553627, "ECCENTRICITY": 0.0024678, "INCLINATION": 55.2581, "RA_OF_ASC_NODE": 340.1367, "ARG_OF_PERICENTER": 233.3993, "MEAN_ANOMALY": 212.8594, "EPHEMERIS_TYPE": 0, "CLASSIFICATION_TYPE": "U", "NORAD_CAT_ID": 48859, "ELEMENT_SET_NO": 999, "REV_AT_EPOCH": 3292, "BSTAR": 0, "MEAN_MOTION_DOT": -8.6e-07, "MEAN_MOTION_DDOT": 0}, "tle": {"line1": "1 48859U 21054A   25342.17676416 -.00000086  00000+0  00000+0 0  9993", "line2": "2 48859  55.2581 340.1367 0024678 233.3993 212.8594  2.00553627 32922"}}, "geometry": {"type": "Point", "coordinates": [151.84639424681842, 10.83492031006492]}}, {"type": "Feature", "properties": {"norad_id": 55268, "name": "GPS BIII-6  (PRN 28)", "group": "gps-ops", "lat": -23.855958233265252, "lon": -6.639354379918155, "alt_km": 20194.337521705078, "timestamp": "2025-12-24T05:51:19.867789+00:00", "meta": {"OBJECT_NAME": "GPS BIII-6  (PRN 28)", "OBJECT_ID": "2023-009A", "EPOCH": "2025-12-22T10:59:58.065216", "MEAN_MOTION": 2.00554901, "ECCENTRICITY": 0.00037047, "INCLINATION": 55.1065, "RA_OF_ASC_NODE": 155.4638, "ARG_OF_PERICENTER": 355.7912, "MEAN_ANOMALY": 4.4255, "EPHEMERIS_TYPE": 0, "CLASSIFICATION_TYPE": "U", "NORAD_CAT_ID": 55268, "ELEMENT_SET_NO": 999, "REV_AT_EPOCH": 2170, "BSTAR": 0, "MEAN_MOTION_DOT": 7.4e-07, "MEAN_MOTION_DDOT": 0}, "tle": {"line1": "1 55268U 23009A   25356.45831094  .00000074  00000+0  00000+0 0  9994", "line2": "2 55268  55.1065 155.4638 0003704 355.7912   4.4255  2.00554901 21704"}}, "geometry": {"type": "Point", "coordinates": [-6.639354379918155, -23.855958233265252]}}]}